ORBCOMM FM24            
1 25478U 98053D   25291.04642227  .00001950  00000+0  67943-3 0  9993
2 25478  45.0088  46.4379 0002936 158.5257 201.5715 14.38432034415136
ORBCOMM FM25            
1 25479U 98053E   25291.57592405  .00002085  00000+0  72355-3 0  9997
2 25479  45.0085  42.2156 0005362 159.3040 200.8026 14.38402839415504
ORBCOMM FM26            
1 25480U 98053F   25291.60041167  .00001678  00000+0  60314-3 0  9996
2 25480  45.0078  39.4646 0007405 170.9519 189.1464 14.37413316415405
ORBCOMM FM27            
1 25481U 98053G   25291.35248570  .00002062  00000+0  71574-3 0  9994
2 25481  45.0063  43.4308 0002040 187.9463 172.1353 14.38438315415402
ORBCOMM FM28            
1 25482U 98053H   25291.86139474  .00001616  00000+0  56913-3 0  9997
2 25482  45.0064 338.3549 0006180 216.9190 143.1234 14.38589409416167
ORBCOMM FM30            
1 25980U 99065A   25291.85418436  .00001762  00000+0  62876-3 0  9998
2 25980  45.0310 224.2499 0007591 280.3061  79.6931 14.37582687352245
ORBCOMM FM31            
1 25981U 99065B   25291.83306568  .00001670  00000+0  59936-3 0  9990
2 25981  45.0222 217.8121 0005391 305.1546  54.8797 14.37511630351792
ORBCOMM FM32            
1 25982U 99065C   25291.89183929  .00001686  00000+0  61617-3 0  9997
2 25982  45.0153 234.9416 0007942 296.6066  63.3968 14.36566010352380
